[
    {
        "Altitude(m)": 707248.2042654064,
        "Argument of Periapsis(deg)": 0.007973084830638947,
        "Eccentricity": 0.0,
        "Inclination(deg)": 45.0,
        "Latitude(deg)": -17.296087786384586,
        "Longitude(deg)": -63.57458622155159,
        "Mean Anomaly(deg)": -24.65404834676345,
        "RAAN(deg)": 54.992473640979256,
        "Satellite Name": "Constellation 1 262",
        "Satellite Number": 262,
        "Semi-Major Axis(m)": 7083131.272910544,
        "Time(s)": 133
    },
    {
        "Altitude(m)": 707235.7293226327,
        "Argument of Periapsis(deg)": 0.008033032836884352,
        "Eccentricity": 0.0,
        "Inclination(deg)": 45.0,
        "Latitude(deg)": -17.25506241195688,
        "Longitude(deg)": -63.53176113970328,
        "Mean Anomaly(deg)": -24.59334720651354,
        "RAAN(deg)": 54.99241705181369,
        "Satellite Name": "Constellation 1 262",
        "Satellite Number": 262,
        "Semi-Major Axis(m)": 7083131.272910544,
        "Time(s)": 134
    },
    {
        "Altitude(m)": 707223.2652909455,
        "Argument of Periapsis(deg)": 0.008092980843129758,
        "Eccentricity": 0.0,
        "Inclination(deg)": 45.0,
        "Latitude(deg)": -17.214025825743573,
        "Longitude(deg)": -63.488956682891825,
        "Mean Anomaly(deg)": -24.532646066263624,
        "RAAN(deg)": 54.992360462648115,
        "Satellite Name": "Constellation 1 262",
        "Satellite Number": 262,
        "Semi-Major Axis(m)": 7083131.272910544,
        "Time(s)": 135
    },
    {
        "Altitude(m)": 707210.8122093856,
        "Argument of Periapsis(deg)": 0.008152928849375162,
        "Eccentricity": 0.0,
        "Inclination(deg)": 45.0,
        "Latitude(deg)": -17.172978060393394,
        "Longitude(deg)": -63.44617279529537,
        "Mean Anomaly(deg)": -24.47194492601372,
        "RAAN(deg)": 54.99230387348255,
        "Satellite Name": "Constellation 1 262",
        "Satellite Number": 262,
        "Semi-Major Axis(m)": 7083131.272910544,
        "Time(s)": 136
    },
    {
        "Altitude(m)": 707198.3701169515,
        "Argument of Periapsis(deg)": 0.008212876855620568,
        "Eccentricity": 0.0,
        "Inclination(deg)": 45.0,
        "Latitude(deg)": -17.13191914851511,
        "Longitude(deg)": -63.403409421122305,
        "Mean Anomaly(deg)": -24.411243785763805,
        "RAAN(deg)": 54.992247284316974,
        "Satellite Name": "Constellation 1 262",
        "Satellite Number": 262,
        "Semi-Major Axis(m)": 7083131.272910544,
        "Time(s)": 137
    },
    {
        "Altitude(m)": 707185.9390525756,
        "Argument of Periapsis(deg)": 0.008272824861865974,
        "Eccentricity": 0.0,
        "Inclination(deg)": 45.0,
        "Latitude(deg)": -17.090849122677728,
        "Longitude(deg)": -63.36066650461127,
        "Mean Anomaly(deg)": -24.350542645513954,
        "RAAN(deg)": 54.992190695151415,
        "Satellite Name": "Constellation 1 262",
        "Satellite Number": 262,
        "Semi-Major Axis(m)": 7083131.272910544,
        "Time(s)": 138
    },
    {
        "Altitude(m)": 707173.5190551351,
        "Argument of Periapsis(deg)": 0.00833277286811138,
        "Eccentricity": 0.0,
        "Inclination(deg)": 45.0,
        "Latitude(deg)": -17.049768015410407,
        "Longitude(deg)": -63.317943990030926,
        "Mean Anomaly(deg)": -24.289841505264086,
        "RAAN(deg)": 54.99213410598584,
        "Satellite Name": "Constellation 1 262",
        "Satellite Number": 262,
        "Semi-Major Axis(m)": 7083131.272910544,
        "Time(s)": 139
    },
    {
        "Altitude(m)": 707161.1101634508,
        "Argument of Periapsis(deg)": 0.008392720874356788,
        "Eccentricity": 0.0,
        "Inclination(deg)": 45.0,
        "Latitude(deg)": -17.00867585920268,
        "Longitude(deg)": -63.275241821680105,
        "Mean Anomaly(deg)": -24.22914036501413,
        "RAAN(deg)": 54.992077516820274,
        "Satellite Name": "Constellation 1 262",
        "Satellite Number": 262,
        "Semi-Major Axis(m)": 7083131.272910544,
        "Time(s)": 140
    },
    {
        "Altitude(m)": 707148.7124162886,
        "Argument of Periapsis(deg)": 0.008452668880602192,
        "Eccentricity": 0.0,
        "Inclination(deg)": 45.0,
        "Latitude(deg)": -16.967572686504862,
        "Longitude(deg)": -63.23256011198519,
        "Mean Anomaly(deg)": -24.168439224764214,
        "RAAN(deg)": 54.9920209276547,
        "Satellite Name": "Constellation 1 262",
        "Satellite Number": 262,
        "Semi-Major Axis(m)": 7083131.272910544,
        "Time(s)": 141
    },
    {
        "Altitude(m)": 707136.3258523421,
        "Argument of Periapsis(deg)": 0.008512616886847598,
        "Eccentricity": 0.0,
        "Inclination(deg)": 45.0,
        "Latitude(deg)": -16.92645852972745,
        "Longitude(deg)": -63.18989846911122,
        "Mean Anomaly(deg)": -24.107738084514313,
        "RAAN(deg)": 54.99196433848914,
        "Satellite Name": "Constellation 1 262",
        "Satellite Number": 262,
        "Semi-Major Axis(m)": 7083131.272910544,
        "Time(s)": 142
    },
    {
        "Altitude(m)": 707123.9505102665,
        "Argument of Periapsis(deg)": 0.008572564893093004,
        "Eccentricity": 0.0,
        "Inclination(deg)": 45.0,
        "Latitude(deg)": -16.885333421242013,
        "Longitude(deg)": -63.14725700554496,
        "Mean Anomaly(deg)": -24.047036944264494,
        "RAAN(deg)": 54.991907749323566,
        "Satellite Name": "Constellation 1 262",
        "Satellite Number": 262,
        "Semi-Major Axis(m)": 7083131.272910544,
        "Time(s)": 143
    },
    {
        "Altitude(m)": 707111.586428647,
        "Argument of Periapsis(deg)": 0.008632512899338408,
        "Eccentricity": 0.0,
        "Inclination(deg)": 45.0,
        "Latitude(deg)": -16.844197393380693,
        "Longitude(deg)": -63.104635665706006,
        "Mean Anomaly(deg)": -23.986335804014537,
        "RAAN(deg)": 54.99185116015799,
        "Satellite Name": "Constellation 1 262",
        "Satellite Number": 262,
        "Semi-Major Axis(m)": 7083131.272910544,
        "Time(s)": 144
    },
    {
        "Altitude(m)": 707099.2336460102,
        "Argument of Periapsis(deg)": 0.008692460905583814,
        "Eccentricity": 0.0,
        "Inclination(deg)": 45.0,
        "Latitude(deg)": -16.803050478436838,
        "Longitude(deg)": -63.06203439404443,
        "Mean Anomaly(deg)": -23.925634663764626,
        "RAAN(deg)": 54.99179457099242,
        "Satellite Name": "Constellation 1 262",
        "Satellite Number": 262,
        "Semi-Major Axis(m)": 7083131.272910544,
        "Time(s)": 145
    },
    {
        "Altitude(m)": 707086.892200833,
        "Argument of Periapsis(deg)": 0.00875240891182922,
        "Eccentricity": 0.0,
        "Inclination(deg)": 45.0,
        "Latitude(deg)": -16.761892708664746,
        "Longitude(deg)": -63.01945313504043,
        "Mean Anomaly(deg)": -23.86493352351477,
        "RAAN(deg)": 54.99173798182685,
        "Satellite Name": "Constellation 1 262",
        "Satellite Number": 262,
        "Semi-Major Axis(m)": 7083131.272910544,
        "Time(s)": 146
    },
    {
        "Altitude(m)": 707074.5621315244,
        "Argument of Periapsis(deg)": 0.008812356918074627,
        "Eccentricity": 0.0,
        "Inclination(deg)": 45.0,
        "Latitude(deg)": -16.720724116279825,
        "Longitude(deg)": -62.97689183320447,
        "Mean Anomaly(deg)": -23.80423238326486,
        "RAAN(deg)": 54.99168139266128,
        "Satellite Name": "Constellation 1 262",
        "Satellite Number": 262,
        "Semi-Major Axis(m)": 7083131.272910544,
        "Time(s)": 147
    },
    {
        "Altitude(m)": 707062.2434764407,
        "Argument of Periapsis(deg)": 0.008872304924320031,
        "Eccentricity": 0.0,
        "Inclination(deg)": 45.0,
        "Latitude(deg)": -16.679544733458975,
        "Longitude(deg)": -62.93435060117433,
        "Mean Anomaly(deg)": -23.74353124301495,
        "RAAN(deg)": 54.99162480349572,
        "Satellite Name": "Constellation 1 262",
        "Satellite Number": 262,
        "Semi-Major Axis(m)": 7083131.272910544,
        "Time(s)": 148
    },
    {
        "Altitude(m)": 707049.9362738715,
        "Argument of Periapsis(deg)": 0.008932252930565437,
        "Eccentricity": 0.0,
        "Inclination(deg)": 45.0,
        "Latitude(deg)": -16.638354592340118,
        "Longitude(deg)": -62.89182904732657,
        "Mean Anomaly(deg)": -23.682830102765035,
        "RAAN(deg)": 54.991568214330144,
        "Satellite Name": "Constellation 1 262",
        "Satellite Number": 262,
        "Semi-Major Axis(m)": 7083131.272910544,
        "Time(s)": 149
    },
    {
        "Altitude(m)": 707037.6405620577,
        "Argument of Periapsis(deg)": 0.008992200936810843,
        "Eccentricity": 0.0,
        "Inclination(deg)": 45.0,
        "Latitude(deg)": -16.59715372502307,
        "Longitude(deg)": -62.849327284359546,
        "Mean Anomaly(deg)": -23.622128962515184,
        "RAAN(deg)": 54.99151162516458,
        "Satellite Name": "Constellation 1 262",
        "Satellite Number": 262,
        "Semi-Major Axis(m)": 7083131.272910544,
        "Time(s)": 150
    },
    {
        "Altitude(m)": 707025.3563791678,
        "Argument of Periapsis(deg)": 0.009052148943056249,
        "Eccentricity": 0.0,
        "Inclination(deg)": 45.0,
        "Latitude(deg)": -16.55594216356906,
        "Longitude(deg)": -62.80684525690447,
        "Mean Anomaly(deg)": -23.56142782226527,
        "RAAN(deg)": 54.991455035999,
        "Satellite Name": "Constellation 1 262",
        "Satellite Number": 262,
        "Semi-Major Axis(m)": 7083131.272910544,
        "Time(s)": 151
    }
]